{
  "type": "FeatureCollection",
  "features": [
    {
      "type": "Feature",
      "properties": {
        "Current Location": "J. Leviste, Laurel"
      },
      "geometry": {
        "coordinates": [
          [
            [
              120.93157560398441,
              14.076092792344056
            ],
            [
              120.93894360674165,
              14.06583287714966
            ],
            [
              120.94784484324828,
              14.067991809577293
            ],
            [
              120.94772522761201,
              14.077651532920811
            ],
            [
              120.93157560398441,
              14.076092792344056
            ]
          ]
        ],
        "type": "Polygon"
      }
    },
    {
      "type": "Feature",
      "properties": {
        "Current Location": "Sampaloc, Talisay"
      },
      "geometry": {
        "coordinates": [
          [
            [
              120.96894457651342,
              14.078544085642065
            ],
            [
              120.97610345627805,
              14.078516434536013
            ],
            [
              120.97610345627805,
              14.09318431483409
            ],
            [
              120.96121544668233,
              14.089134548551755
            ],
            [
              120.96894457651342,
              14.078544085642065
            ]
          ]
        ],
        "type": "Polygon"
      }
    },
    {
      "type": "Feature",
      "properties": {
        "Current Location": "Caloocan, Talisay"
      },
      "geometry": {
        "coordinates": [
          [
            [
              120.98847460273123,
              14.091817873564452
            ],
            [
              120.97848240115246,
              14.093041579060994
            ],
            [
              120.97893529337716,
              14.083704094149098
            ],
            [
              120.98245805452137,
              14.08378784481829
            ],
            [
              120.98847460273123,
              14.091817873564452
            ]
          ]
        ],
        "type": "Polygon"
      }
    },
    {
      "type": "Feature",
      "properties": {
        "Current Location": "Buco, Talisay"
      },
      "geometry": {
        "coordinates": [
          [
            [
              120.98204089303402,
              14.083241527771648
            ],
            [
              120.99335866431193,
              14.079467840504023
            ],
            [
              120.99361208925194,
              14.089881796513438
            ],
            [
              120.9889501295786,
              14.092437366332462
            ],
            [
              120.98204089303402,
              14.083241527771648
            ]
          ]
        ],
        "type": "Polygon"
      }
    },
    {
      "type": "Feature",
      "properties": {
        "Current Location": "Balas, Talisay"
      },
      "geometry": {
        "coordinates": [
          [
            [
              120.99336441002521,
              14.07949165578016
            ],
            [
              121.00273334164763,
              14.080077362871407
            ],
            [
              120.9985539659877,
              14.090316891161123
            ],
            [
              120.99361578682664,
              14.089849883313533
            ],
            [
              120.99336441002521,
              14.07949165578016
            ]
          ]
        ],
        "type": "Polygon"
      }
    },
    {
      "type": "Feature",
      "properties": {
        "Current Location": "Ambulong, Tanauan"
      },
      "geometry": {
        "type": "Polygon",
        "coordinates": [
          [
            [
              121.06218,
              14.082302
            ],
            [
              121.0657337,
              14.0886781
            ],
            [
              121.066766,
              14.090529
            ],
            [
              121.054444,
              14.09955
            ],
            [
              121.052883,
              14.099019
            ],
            [
              121.052208,
              14.098349
            ],
            [
              121.051735,
              14.097061
            ],
            [
              121.051405,
              14.096631
            ],
            [
              121.051397,
              14.095387
            ],
            [
              121.050504,
              14.094236
            ],
            [
              121.049071,
              14.091245
            ],
            [
              121.054704,
              14.085553
            ],
            [
              121.06218,
              14.082302
            ]
          ]
        ]
      }
    },
    {
      "type": "Feature",
      "properties": {
        "Current Location": "Banadero, Tanauan"
      },
      "geometry": {
        "type": "Polygon",
        "coordinates": [
          [
            [
              121.073423,
              14.086613
            ],
            [
              121.077153,
              14.083126
            ],
            [
              121.067231,
              14.076165
            ],
            [
              121.062143,
              14.082263
            ],
            [
              121.066764,
              14.090501
            ],
            [
              121.068852,
              14.092904
            ],
            [
              121.074633,
              14.088602
            ],
            [
              121.073422,
              14.086614
            ],
            [
              121.073423,
              14.086613
            ]
          ]
        ]
      }
    },
    {
      "type": "Feature",
      "properties": {
        "Current Location": "Talaga, Tanauan"
      },
      "geometry": {
        "type": "Polygon",
        "coordinates": [
          [
            [
              121.077178,
              14.083135
            ],
            [
              121.073428,
              14.086598
            ],
            [
              121.074644,
              14.088607
            ],
            [
              121.068884,
              14.092919
            ],
            [
              121.072022,
              14.096028
            ],
            [
              121.077987,
              14.097627
            ],
            [
              121.095498,
              14.10449
            ],
            [
              121.0965,
              14.104754
            ],
            [
              121.097359,
              14.105261
            ],
            [
              121.104617,
              14.103956
            ],
            [
              121.104939,
              14.102214
            ],
            [
              121.106492,
              14.100819
            ],
            [
              121.106958,
              14.099837
            ],
            [
              121.107165,
              14.098199
            ],
            [
              121.108857,
              14.096803
            ],
            [
              121.109615,
              14.095415
            ],
            [
              121.09881,
              14.095544
            ],
            [
              121.077178,
              14.083135
            ]
          ]
        ]
      }
    },
    {
      "type": "Feature",
      "properties": {
        "Current Location": "Sambat, Tanauan"
      },
      "geometry": {
        "type": "Polygon",
        "coordinates": [
          [
            [
              121.124834,
              14.089653
            ],
            [
              121.123857,
              14.086616
            ],
            [
              121.123678,
              14.084324
            ],
            [
              121.124981,
              14.083876
            ],
            [
              121.125224,
              14.082164
            ],
            [
              121.12488,
              14.08122
            ],
            [
              121.1248,
              14.080556
            ],
            [
              121.124452,
              14.080043
            ],
            [
              121.123758,
              14.079743
            ],
            [
              121.123591,
              14.07907
            ],
            [
              121.129167,
              14.076578
            ],
            [
              121.132541,
              14.077594
            ],
            [
              121.135785,
              14.078001
            ],
            [
              121.136532,
              14.080355
            ],
            [
              121.142031,
              14.081455
            ],
            [
              121.143409,
              14.081064
            ],
            [
              121.142151,
              14.082978
            ],
            [
              121.141879,
              14.084029
            ],
            [
              121.136744,
              14.086351
            ],
            [
              121.132824,
              14.087465
            ],
            [
              121.131247,
              14.087883
            ],
            [
              121.127821,
              14.089559
            ],
            [
              121.124834,
              14.089652
            ],
            [
              121.124834,
              14.089653
            ]
          ]
        ]
      }
    },
    {
      "type": "Feature",
      "properties": {
        "Current Location": "Tanauan"
      },
      "geometry": {
        "coordinates": [
          [
            [
              121.15802197699463,
              14.092668709626167
            ],
            [
              121.14865073172751,
              14.090045502845605
            ],
            [
              121.14399445267429,
              14.096640241303973
            ],
            [
              121.1396892,
              14.0850378
            ],
            [
              121.1418752,
              14.0840309
            ],
            [
              121.1421512,
              14.0829775
            ],
            [
              121.1434062,
              14.0810648
            ],
            [
              121.1420253,
              14.0814598
            ],
            [
              121.1413251,
              14.0813143
            ],
            [
              121.1391912493055,
              14.07415603314854
            ],
            [
              121.1551224350045,
              14.076238381934687
            ],
            [
              121.15802197699463,
              14.092668709626167
            ]
          ]
        ],
        "type": "Polygon"
      }
    },
    {
      "type": "Feature",
      "properties": {
        "Current Location": "Sto. Tomas"
      },
      "geometry": {
        "coordinates": [
          [
            [
              121.15809059057267,
              14.092709518462868
            ],
            [
              121.16507730449564,
              14.106605699195072
            ],
            [
              121.15228373264965,
              14.118393793975123
            ],
            [
              121.14116582974142,
              14.115556749736996
            ],
            [
              121.137063384427,
              14.10940845231184
            ],
            [
              121.1437244598003,
              14.097008827149665
            ],
            [
              121.14866030339678,
              14.09004738113105
            ],
            [
              121.15809059057267,
              14.092709518462868
            ]
          ]
        ],
        "type": "Polygon"
      }
    },
    {
      "type": "Feature",
      "properties": {
        "Current Location": "Bugaan West, Laurel"
      },
      "geometry": {
        "coordinates": [
          [
            [
              120.9388871320769,
              14.046995552471188
            ],
            [
              120.93147386576334,
              14.045809013791512
            ],
            [
              120.93161776107826,
              14.039087848298166
            ],
            [
              120.93967855631126,
              14.039157646923911
            ],
            [
              120.9388871320769,
              14.046995552471188
            ]
          ]
        ],
        "type": "Polygon"
      }
    },
    {
      "type": "Feature",
      "properties": {
        "Current Location": "Laurel"
      },
      "geometry": {
        "coordinates": [
          [
            [
              120.93884651913379,
              14.047008342759511
            ],
            [
              120.93850292552713,
              14.060315662751805
            ],
            [
              120.9254872467481,
              14.059275512434425
            ],
            [
              120.92829388178421,
              14.04516679773809
            ],
            [
              120.93884651913379,
              14.047008342759511
            ]
          ]
        ],
        "type": "Polygon"
      }
    },
    {
      "type": "Feature",
      "properties": {
        "Current Location": "Balakilong, Laurel"
      },
      "geometry": {
        "coordinates": [
          [
            [
              120.93163759434054,
              14.07599198701321
            ],
            [
              120.92607506235402,
              14.059274150833758
            ],
            [
              120.93849856214115,
              14.060298516710503
            ],
            [
              120.93867273535483,
              14.066240541913075
            ],
            [
              120.93163759434054,
              14.07599198701321
            ]
          ]
        ],
        "type": "Polygon"
      }
    },
    {
      "type": "Feature",
      "properties": {
        "Current Location": "Berinayan, Laurel"
      },
      "geometry": {
        "coordinates": [
          [
            [
              120.96177137102478,
              14.088368248504864
            ],
            [
              120.95225566059833,
              14.087772913051978
            ],
            [
              120.94773692663057,
              14.07823566588874
            ],
            [
              120.94779084997299,
              14.06763804922447
            ],
            [
              120.95937351115941,
              14.067950147983893
            ],
            [
              120.96885319909708,
              14.078680697011265
            ],
            [
              120.96177137102478,
              14.088368248504864
            ]
          ]
        ],
        "type": "Polygon"
      }
    },
    {
      "type": "Feature",
      "properties": {
        "Current Location": "Leynes, Talisay"
      },
      "geometry": {
        "coordinates": [
          [
            [
              120.97610745550185,
              14.083653413130747
            ],
            [
              120.97891751083773,
              14.083892287997955
            ],
            [
              120.97850801977569,
              14.092266054327055
            ],
            [
              120.97610152230118,
              14.09339857606723
            ],
            [
              120.97610745550185,
              14.083653413130747
            ]
          ]
        ],
        "type": "Polygon"
      }
    },
    {
      "type": "Feature",
      "properties": {
        "Current Location": "Santa Maria, Talisay"
      },
      "geometry": {
        "coordinates": [
          [
            [
              120.99856816842242,
              14.090292523214657
            ],
            [
              121.00270155929775,
              14.080166562001494
            ],
            [
              121.01356856268927,
              14.084796138468263
            ],
            [
              121.00404856632252,
              14.09273904515014
            ],
            [
              120.99856816842242,
              14.090292523214657
            ]
          ]
        ],
        "type": "Polygon"
      }
    },
    {
      "type": "Feature",
      "properties": {
        "Current Location": "Banga, Talisay"
      },
      "geometry": {
        "coordinates": [
          [
            [
              121.0041276452427,
              14.092675390126516
            ],
            [
              121.01413102209398,
              14.084321917636856
            ],
            [
              121.0192485462722,
              14.084912742635396
            ],
            [
              121.01910767736888,
              14.096457069341469
            ],
            [
              121.0041276452427,
              14.092675390126516
            ]
          ]
        ],
        "type": "Polygon"
      }
    },
    {
      "type": "Feature",
      "properties": {
        "Current Location": "Talisay"
      },
      "geometry": {
        "coordinates": [
          [
            [
              121.01910323300149,
              14.097242821706203
            ],
            [
              121.01924831842246,
              14.084931354388232
            ],
            [
              121.02555933976402,
              14.08581085300564
            ],
            [
              121.02548678530701,
              14.09685592896102
            ],
            [
              121.01910323300149,
              14.097242821706203
            ]
          ]
        ],
        "type": "Polygon"
      }
    },
    {
      "type": "Feature",
      "properties": {
        "Current Location": "Tumaway, Talisay"
      },
      "geometry": {
        "coordinates": [
          [
            [
              121.02547106345247,
              14.098595340332707
            ],
            [
              121.02556321325983,
              14.085236081899268
            ],
            [
              121.03491990226547,
              14.086341238357221
            ],
            [
              121.03383870834188,
              14.099117893409598
            ],
            [
              121.02547106345247,
              14.098595340332707
            ]
          ]
        ],
        "type": "Polygon"
      }
    },
    {
      "type": "Feature",
      "properties": {
        "Current Location": "Quiling, Talisay"
      },
      "geometry": {
        "coordinates": [
          [
            [
              121.03982818810829,
              14.097664530296399
            ],
            [
              121.03383919298079,
              14.099105512764865
            ],
            [
              121.03491514942965,
              14.086398109601319
            ],
            [
              121.04067302912478,
              14.086934377697787
            ],
            [
              121.03982818810829,
              14.097664530296399
            ]
          ]
        ],
        "type": "Polygon"
      }
    },
    {
      "type": "Feature",
      "properties": {
        "Current Location": "Aya, Talisay"
      },
      "geometry": {
        "type": "Polygon",
        "coordinates": [
          [
            [
              121.049061,
              14.091228
            ],
            [
              121.050521,
              14.094243
            ],
            [
              121.051405,
              14.095388
            ],
            [
              121.051421,
              14.096616
            ],
            [
              121.051734,
              14.097078
            ],
            [
              121.037559,
              14.101652
            ],
            [
              121.038391,
              14.099294
            ],
            [
              121.038434,
              14.098166
            ],
            [
              121.039128,
              14.095459
            ],
            [
              121.039084,
              14.095213
            ],
            [
              121.038838,
              14.09477
            ],
            [
              121.038816,
              14.09459
            ],
            [
              121.038832,
              14.094417
            ],
            [
              121.038949,
              14.093944
            ],
            [
              121.038895,
              14.093591
            ],
            [
              121.03882,
              14.09351
            ],
            [
              121.038641,
              14.093493
            ],
            [
              121.049061,
              14.091228
            ]
          ]
        ]
      }
    },
    {
      "type": "Feature",
      "properties": {
        "Current Location": "Santor, Tanauan"
      },
      "geometry": {
        "type": "Polygon",
        "coordinates": [
          [
            [
              121.098879,
              14.095544
            ],
            [
              121.1096148,
              14.095415
            ],
            [
              121.1093039,
              14.0959836
            ],
            [
              121.110485,
              14.0963294
            ],
            [
              121.115412,
              14.096247
            ],
            [
              121.120368,
              14.095331
            ],
            [
              121.124836,
              14.089643
            ],
            [
              121.123857,
              14.08662
            ],
            [
              121.123681,
              14.084316
            ],
            [
              121.1097,
              14.080336
            ],
            [
              121.098879,
              14.095544
            ]
          ]
        ]
      }
    },
    {
      "type": "Feature",
      "properties": {
        "Current Location": "Bugaan East, Laurel"
      },
      "geometry": {
        "coordinates": [
          [
            [
              120.93875245324989,
              14.048472523082367
            ],
            [
              120.93966702689801,
              14.03924759738723
            ],
            [
              120.94959438932841,
              14.042352969330167
            ],
            [
              120.94634765287412,
              14.053219097243087
            ],
            [
              120.93875245324989,
              14.048472523082367
            ]
          ]
        ],
        "type": "Polygon"
      }
    },
    {
      "type": "Feature",
      "properties": {
        "Current Location": "Looc, Calamba"
      },
      "geometry": {
        "coordinates": [
          [
            [
              121.16908,
              14.222766
            ],
            [
              121.169331,
              14.221965
            ],
            [
              121.169858,
              14.222097
            ],
            [
              121.170748,
              14.221997
            ],
            [
              121.171314,
              14.221759
            ],
            [
              121.172145,
              14.218529
            ],
            [
              121.172191,
              14.217581
            ],
            [
              121.173531,
              14.217472
            ],
            [
              121.174257,
              14.21749
            ],
            [
              121.175432,
              14.218053
            ],
            [
              121.177687,
              14.219358
            ],
            [
              121.181379,
              14.223662
            ],
            [
              121.186793,
              14.226094
            ],
            [
              121.18711,
              14.229649
            ],
            [
              121.182766,
              14.238569
            ],
            [
              121.169419,
              14.229621
            ],
            [
              121.16908,
              14.222766
            ]
          ]
        ],
        "type": "Polygon"
      }
    },
    {
      "type": "Feature",
      "properties": {
        "Current Location": "San Isidro"
      },
      "geometry": {
        "coordinates": [
          [
            [
              121.169066,
              14.079797
            ],
            [
              121.166314,
              14.07721
            ],
            [
              121.174122,
              14.071088
            ],
            [
              121.179764,
              14.075834
            ],
            [
              121.169066,
              14.079797
            ]
          ]
        ],
        "type": "Polygon"
      }
    },
    {
      "type": "Feature",
      "properties": {
        "Current Location": "J. Leviste, Laurel"
      },
      "geometry": {
        "coordinates": [
          [
            [
              120.93157560398441,
              14.076092792344056
            ],
            [
              120.93894360674165,
              14.06583287714966
            ],
            [
              120.94784484324828,
              14.067991809577293
            ],
            [
              120.94772522761201,
              14.077651532920811
            ],
            [
              120.93157560398441,
              14.076092792344056
            ]
          ]
        ],
        "type": "Polygon"
      }
    },
    {
      "type": "Feature",
      "properties": {
        "Current Location": "Sampaloc, Talisay"
      },
      "geometry": {
        "coordinates": [
          [
            [
              120.9613502,
              14.0912065
            ],
            [
              120.9605358,
              14.0912154
            ],
            [
              120.9599398,
              14.0912219
            ],
            [
              120.9584101,
              14.0912764
            ],
            [
              120.9573651,
              14.0915913
            ],
            [
              120.9600815,
              14.0764968
            ],
            [
              120.9601231,
              14.0763459
            ],
            [
              120.9602197,
              14.0761156
            ],
            [
              120.9603873,
              14.0758177
            ],
            [
              120.9604932,
              14.0756564
            ],
            [
              120.9606367,
              14.0754782
            ],
            [
              120.9607789,
              14.0753663
            ],
            [
              120.9608801,
              14.0753293
            ],
            [
              120.9611437,
              14.0753254
            ],
            [
              120.9613435,
              14.0753351
            ],
            [
              120.9619731,
              14.0755063
            ],
            [
              120.9619228,
              14.0755823
            ],
            [
              120.9619001,
              14.0756889
            ],
            [
              120.961845,
              14.0758216
            ],
            [
              120.9618129,
              14.0759348
            ],
            [
              120.9618075,
              14.0760779
            ],
            [
              120.9617914,
              14.07626
            ],
            [
              120.9617954,
              14.0764187
            ],
            [
              120.9618209,
              14.0766294
            ],
            [
              120.9618397,
              14.0768207
            ],
            [
              120.9618479,
              14.0769519
            ],
            [
              120.9618169,
              14.0770431
            ],
            [
              120.9617633,
              14.0771381
            ],
            [
              120.9616935,
              14.0773397
            ],
            [
              120.9615755,
              14.0777651
            ],
            [
              120.9615219,
              14.077994
            ],
            [
              120.9614977,
              14.0781449
            ],
            [
              120.9614655,
              14.0783192
            ],
            [
              120.9614414,
              14.0785169
            ],
            [
              120.9614092,
              14.0787745
            ],
            [
              120.961436,
              14.0790165
            ],
            [
              120.9614414,
              14.0790971
            ],
            [
              120.9614629,
              14.0792532
            ],
            [
              120.961538,
              14.0795914
            ],
            [
              120.9616238,
              14.0799765
            ],
            [
              120.9616935,
              14.0802132
            ],
            [
              120.9617901,
              14.0804317
            ],
            [
              120.9618705,
              14.08058
            ],
            [
              120.9619591,
              14.0806828
            ],
            [
              120.9620167,
              14.0807622
            ],
            [
              120.9621549,
              14.0808116
            ],
            [
              120.9622219,
              14.0808428
            ],
            [
              120.9622782,
              14.0809
            ],
            [
              120.9623775,
              14.0811134
            ],
            [
              120.9624311,
              14.0812955
            ],
            [
              120.962517,
              14.081501
            ],
            [
              120.9626028,
              14.0816571
            ],
            [
              120.9626859,
              14.081782
            ],
            [
              120.9627691,
              14.0819147
            ],
            [
              120.9628683,
              14.0820578
            ],
            [
              120.9629703,
              14.0822347
            ],
            [
              120.9630507,
              14.0824038
            ],
            [
              120.9631446,
              14.0825937
            ],
            [
              120.9631875,
              14.0826743
            ],
            [
              120.9632264,
              14.0827329
            ],
            [
              120.9632827,
              14.0827836
            ],
            [
              120.9633122,
              14.0828057
            ],
            [
              120.9633431,
              14.0828252
            ],
            [
              120.9634155,
              14.0828942
            ],
            [
              120.9634678,
              14.082954
            ],
            [
              120.9635282,
              14.083036
            ],
            [
              120.9635966,
              14.0831088
            ],
            [
              120.9636529,
              14.0831452
            ],
            [
              120.9637079,
              14.0831621
            ],
            [
              120.9637468,
              14.0831699
            ],
            [
              120.9638125,
              14.0831738
            ],
            [
              120.963909,
              14.0831686
            ],
            [
              120.9639895,
              14.0831764
            ],
            [
              120.9640686,
              14.0831881
            ],
            [
              120.9641102,
              14.0832025
            ],
            [
              120.9641531,
              14.0832324
            ],
            [
              120.9641638,
              14.0832519
            ],
            [
              120.9641826,
              14.0832961
            ],
            [
              120.9642255,
              14.0833638
            ],
            [
              120.9642497,
              14.0833885
            ],
            [
              120.9643114,
              14.0834119
            ],
            [
              120.9643449,
              14.083421
            ],
            [
              120.9643838,
              14.0834301
            ],
            [
              120.9644153,
              14.0834444
            ],
            [
              120.9644522,
              14.0834639
            ],
            [
              120.9644676,
              14.0834821
            ],
            [
              120.9645005,
              14.0835172
            ],
            [
              120.9645347,
              14.0835407
            ],
            [
              120.9645621,
              14.0835517
            ],
            [
              120.9645896,
              14.083553
            ],
            [
              120.9646614,
              14.0835576
            ],
            [
              120.9647472,
              14.0835862
            ],
            [
              120.9648143,
              14.0836109
            ],
            [
              120.9648626,
              14.0836382
            ],
            [
              120.964994,
              14.0836968
            ],
            [
              120.9650812,
              14.083715
            ],
            [
              120.9652019,
              14.0837241
            ],
            [
              120.9652971,
              14.0837156
            ],
            [
              120.965403,
              14.0836968
            ],
            [
              120.9654962,
              14.0836688
            ],
            [
              120.9656049,
              14.083646
            ],
            [
              120.9657785,
              14.0836161
            ],
            [
              120.9659301,
              14.083594
            ],
            [
              120.9660159,
              14.0835875
            ],
            [
              120.9661487,
              14.0835823
            ],
            [
              120.9662734,
              14.0835979
            ],
            [
              120.9663498,
              14.0836265
            ],
            [
              120.9664437,
              14.0836968
            ],
            [
              120.9665108,
              14.0837514
            ],
            [
              120.9665537,
              14.0837878
            ],
            [
              120.9666154,
              14.0838529
            ],
            [
              120.9666958,
              14.0839829
            ],
            [
              120.9667575,
              14.0841937
            ],
            [
              120.9668004,
              14.0843393
            ],
            [
              120.9668434,
              14.0845293
            ],
            [
              120.9669211,
              14.084818
            ],
            [
              120.9669721,
              14.0849923
            ],
            [
              120.9670204,
              14.0851354
            ],
            [
              120.967074,
              14.0853566
            ],
            [
              120.9671169,
              14.0855439
            ],
            [
              120.9671625,
              14.0856245
            ],
            [
              120.9672403,
              14.0857104
            ],
            [
              120.9673235,
              14.085778
            ],
            [
              120.9673718,
              14.0858274
            ],
            [
              120.9674227,
              14.0859003
            ],
            [
              120.9674656,
              14.0859757
            ],
            [
              120.9675032,
              14.086124
            ],
            [
              120.9675595,
              14.0862697
            ],
            [
              120.9676051,
              14.0863816
            ],
            [
              120.9676507,
              14.0864544
            ],
            [
              120.9677258,
              14.0865455
            ],
            [
              120.9678438,
              14.0866782
            ],
            [
              120.9679404,
              14.0867666
            ],
            [
              120.9680825,
              14.0868238
            ],
            [
              120.9681603,
              14.0868499
            ],
            [
              120.9683052,
              14.0868681
            ],
            [
              120.9685627,
              14.0868863
            ],
            [
              120.9687397,
              14.0868863
            ],
            [
              120.9690562,
              14.0868759
            ],
            [
              120.9692064,
              14.0868681
            ],
            [
              120.9692895,
              14.0868499
            ],
            [
              120.9693673,
              14.086803
            ],
            [
              120.9694129,
              14.0867692
            ],
            [
              120.9694585,
              14.0866808
            ],
            [
              120.969488,
              14.0866443
            ],
            [
              120.9695202,
              14.0865871
            ],
            [
              120.9695712,
              14.0865273
            ],
            [
              120.9696302,
              14.0864986
            ],
            [
              120.9697321,
              14.0864466
            ],
            [
              120.9698099,
              14.0864102
            ],
            [
              120.9698662,
              14.0863374
            ],
            [
              120.9698904,
              14.0862697
            ],
            [
              120.9699199,
              14.0861813
            ],
            [
              120.9699494,
              14.0860382
            ],
            [
              120.9699815,
              14.0858327
            ],
            [
              120.9700084,
              14.0856662
            ],
            [
              120.9700352,
              14.0855049
            ],
            [
              120.9700701,
              14.0853592
            ],
            [
              120.9701264,
              14.0851562
            ],
            [
              120.9701586,
              14.0850574
            ],
            [
              120.9702256,
              14.0849325
            ],
            [
              120.9702605,
              14.084831
            ],
            [
              120.97029,
              14.0847322
            ],
            [
              120.9703168,
              14.0845917
            ],
            [
              120.9703396,
              14.0844889
            ],
            [
              120.9703477,
              14.0844499
            ],
            [
              120.9703356,
              14.0843745
            ],
            [
              120.9703289,
              14.084338
            ],
            [
              120.9703356,
              14.0843081
            ],
            [
              120.9703558,
              14.0842876
            ],
            [
              120.9704214,
              14.0842535
            ],
            [
              120.9705247,
              14.084234
            ],
            [
              120.9705569,
              14.084234
            ],
            [
              120.9706172,
              14.0842405
            ],
            [
              120.970691,
              14.0842899
            ],
            [
              120.9707379,
              14.0843276
            ],
            [
              120.9709552,
              14.0845891
            ],
            [
              120.9710866,
              14.084766
            ],
            [
              120.9711322,
              14.0848805
            ],
            [
              120.9711805,
              14.085008
            ],
            [
              120.9712395,
              14.0851849
            ],
            [
              120.9713066,
              14.0853175
            ],
            [
              120.9713897,
              14.0854866
            ],
            [
              120.9715399,
              14.0857156
            ],
            [
              120.9716633,
              14.0858847
            ],
            [
              120.9718001,
              14.0859783
            ],
            [
              120.9718806,
              14.0860252
            ],
            [
              120.9720281,
              14.0861006
            ],
            [
              120.9720898,
              14.0861292
            ],
            [
              120.9721997,
              14.0861552
            ],
            [
              120.9723392,
              14.0861995
            ],
            [
              120.9724277,
              14.0862229
            ],
            [
              120.9725457,
              14.0862567
            ],
            [
              120.9727228,
              14.0863374
            ],
            [
              120.9728327,
              14.0863998
            ],
            [
              120.97294,
              14.0864414
            ],
            [
              120.9730822,
              14.0865039
            ],
            [
              120.9731761,
              14.0865299
            ],
            [
              120.9732964,
              14.0865468
            ],
            [
              120.9734228,
              14.0865364
            ],
            [
              120.9736943,
              14.0872117
            ],
            [
              120.9735462,
              14.0872944
            ],
            [
              120.973341,
              14.0874206
            ],
            [
              120.9732219,
              14.0874745
            ],
            [
              120.9731175,
              14.0876342
            ],
            [
              120.9729236,
              14.0877692
            ],
            [
              120.9729484,
              14.087899
            ],
            [
              120.9728675,
              14.0879873
            ],
            [
              120.9728182,
              14.088031
            ],
            [
              120.9727123,
              14.0881249
            ],
            [
              120.9726805,
              14.0881815
            ],
            [
              120.9724424,
              14.0882444
            ],
            [
              120.9723385,
              14.0882702
            ],
            [
              120.9721631,
              14.0884782
            ],
            [
              120.9718101,
              14.0892379
            ],
            [
              120.9716231,
              14.0898367
            ],
            [
              120.9714031,
              14.0900953
            ],
            [
              120.9712078,
              14.090597
            ],
            [
              120.9710567,
              14.0908357
            ],
            [
              120.97059,
              14.090961
            ],
            [
              120.9703976,
              14.0910659
            ],
            [
              120.9703414,
              14.091427
            ],
            [
              120.9704063,
              14.0918167
            ],
            [
              120.9703208,
              14.0924119
            ],
            [
              120.9701916,
              14.0930154
            ],
            [
              120.9702794,
              14.0943213
            ],
            [
              120.9705884,
              14.0949017
            ],
            [
              120.9706517,
              14.0950561
            ],
            [
              120.9707998,
              14.0957944
            ],
            [
              120.970777,
              14.0965704
            ],
            [
              120.9705266,
              14.0978006
            ],
            [
              120.9704047,
              14.098327
            ],
            [
              120.9693817,
              14.0975795
            ],
            [
              120.969185,
              14.0968369
            ],
            [
              120.968916,
              14.0959542
            ],
            [
              120.9678938,
              14.095381
            ],
            [
              120.9673979,
              14.0954243
            ],
            [
              120.9667551,
              14.0958842
            ],
            [
              120.9663787,
              14.0962469
            ],
            [
              120.9645573,
              14.0950817
            ],
            [
              120.96383,
              14.0932675
            ],
            [
              120.9634861,
              14.0928694
            ],
            [
              120.9632199,
              14.0924175
            ],
            [
              120.9620139,
              14.0920066
            ],
            [
              120.9613502,
              14.0912065
            ]
          ]
        ],
        "type": "Polygon"
      }
    },
    {
      "type": "Feature",
      "properties": {
        "Current Location": "Caloocan, Talisay"
      },
      "geometry": {
        "coordinates": [
          [
            [
              120.97298,
              14.0997459
            ],
            [
              120.9742173,
              14.0986617
            ],
            [
              120.974931,
              14.0974483
            ],
            [
              120.9751781,
              14.0965061
            ],
            [
              120.9759131,
              14.0958038
            ],
            [
              120.9767985,
              14.0956635
            ],
            [
              120.9774984,
              14.0950788
            ],
            [
              120.9779861,
              14.0947541
            ],
            [
              120.9783251,
              14.094289
            ],
            [
              120.978653,
              14.0937171
            ],
            [
              120.9793163,
              14.0929877
            ],
            [
              120.9794251,
              14.0928928
            ],
            [
              120.9797643,
              14.0925969
            ],
            [
              120.9805385,
              14.0915244
            ],
            [
              120.980634,
              14.0906807
            ],
            [
              120.9809122,
              14.0896485
            ],
            [
              120.9811031,
              14.0888825
            ],
            [
              120.9809735,
              14.0883324
            ],
            [
              120.9810212,
              14.0877874
            ],
            [
              120.9809801,
              14.0875053
            ],
            [
              120.9805725,
              14.0872492
            ],
            [
              120.980414,
              14.0869695
            ],
            [
              120.9802903,
              14.0868367
            ],
            [
              120.9802235,
              14.0864922
            ],
            [
              120.9804462,
              14.0860948
            ],
            [
              120.9804502,
              14.0860876
            ],
            [
              120.9806836,
              14.0861917
            ],
            [
              120.9809957,
              14.0862287
            ],
            [
              120.9811866,
              14.0862342
            ],
            [
              120.9814828,
              14.0862455
            ],
            [
              120.9819007,
              14.0862681
            ],
            [
              120.9821547,
              14.0862849
            ],
            [
              120.9823885,
              14.0863364
            ],
            [
              120.9825638,
              14.0863972
            ],
            [
              120.9826974,
              14.0864678
            ],
            [
              120.9827945,
              14.0865403
            ],
            [
              120.9829796,
              14.0866806
            ],
            [
              120.9831932,
              14.0868102
            ],
            [
              120.9834301,
              14.086898
            ],
            [
              120.9835472,
              14.0869625
            ],
            [
              120.9836119,
              14.087024
            ],
            [
              120.9837043,
              14.0871026
            ],
            [
              120.9838053,
              14.08717
            ],
            [
              120.9838888,
              14.0872167
            ],
            [
              120.9839846,
              14.0872476
            ],
            [
              120.9841301,
              14.0872648
            ],
            [
              120.9843448,
              14.0872199
            ],
            [
              120.9844131,
              14.087189
            ],
            [
              120.9845728,
              14.0871152
            ],
            [
              120.9846434,
              14.0870622
            ],
            [
              120.9848807,
              14.0868743
            ],
            [
              120.9850005,
              14.0867623
            ],
            [
              120.9850153,
              14.0867146
            ],
            [
              120.9850417,
              14.0866286
            ],
            [
              120.9850395,
              14.0865533
            ],
            [
              120.9850131,
              14.0865069
            ],
            [
              120.9849617,
              14.086457
            ],
            [
              120.9848678,
              14.086405
            ],
            [
              120.9847985,
              14.0863417
            ],
            [
              120.9847283,
              14.0862619
            ],
            [
              120.9846986,
              14.0861778
            ],
            [
              120.9846961,
              14.086111
            ],
            [
              120.9847524,
              14.0859702
            ],
            [
              120.9848748,
              14.085748
            ],
            [
              120.9849243,
              14.0857056
            ],
            [
              120.9853471,
              14.0860402
            ],
            [
              120.9853407,
              14.0861082
            ],
            [
              120.9855178,
              14.0863594
            ],
            [
              120.9856549,
              14.0869564
            ],
            [
              120.9856275,
              14.087583
            ],
            [
              120.9851206,
              14.0889559
            ],
            [
              120.9833758,
              14.0910508
            ],
            [
              120.9829459,
              14.0927712
            ],
            [
              120.9824911,
              14.0935721
            ],
            [
              120.9817055,
              14.093496
            ],
            [
              120.9812463,
              14.1027777
            ],
            [
              120.9807625,
              14.1030861
            ],
            [
              120.9802427,
              14.1030953
            ],
            [
              120.9802591,
              14.103861
            ],
            [
              120.9800577,
              14.1040249
            ],
            [
              120.9795248,
              14.1041616
            ],
            [
              120.9795128,
              14.1041647
            ],
            [
              120.9786136,
              14.1038739
            ],
            [
              120.9772932,
              14.1037938
            ],
            [
              120.9762782,
              14.1038201
            ],
            [
              120.9761674,
              14.1028432
            ],
            [
              120.9762032,
              14.1020251
            ],
            [
              120.9736299,
              14.1003235
            ],
            [
              120.97298,
              14.0997459
            ]
          ]
        ],
        "type": "Polygon"
      }
    },
    {
      "type": "Feature",
      "properties": {
        "Current Location": "Buco, Talisay"
      },
      "geometry": {
        "coordinates": [
          [
            [
              120.98204089303402,
              14.083241527771648
            ],
            [
              120.99335866431193,
              14.079467840504023
            ],
            [
              120.99361208925194,
              14.089881796513438
            ],
            [
              120.9889501295786,
              14.092437366332462
            ],
            [
              120.9855741,
              14.0862098
            ],
            [
              120.9853509,
              14.0860426
            ],
            [
              120.9849217,
              14.0857033
            ],
            [
              120.9846618,
              14.0855073
            ],
            [
              120.9839934,
              14.0849232
            ],
            [
              120.98204089303402,
              14.083241527771648
            ]
          ]
        ],
        "type": "Polygon"
      }
    },
    {
      "type": "Feature",
      "properties": {
        "Current Location": "Balas, Talisay"
      },
      "geometry": {
        "coordinates": [
          [
            [
              120.99336441002521,
              14.07949165578016
            ],
            [
              121.00273334164763,
              14.080077362871407
            ],
            [
              120.9985539659877,
              14.090316891161123
            ],
            [
              120.99361578682664,
              14.089849883313533
            ],
            [
              120.99336441002521,
              14.07949165578016
            ]
          ]
        ],
        "type": "Polygon"
      }
    },
    {
      "type": "Feature",
      "properties": {
        "Current Location": "Ambulong, Tanauan"
      },
      "geometry": {
        "type": "Polygon",
        "coordinates": [
          [
            [
              121.06218,
              14.082302
            ],
            [
              121.0657337,
              14.0886781
            ],
            [
              121.066766,
              14.090529
            ],
            [
              121.054444,
              14.09955
            ],
            [
              121.052883,
              14.099019
            ],
            [
              121.052208,
              14.098349
            ],
            [
              121.051735,
              14.097061
            ],
            [
              121.051405,
              14.096631
            ],
            [
              121.051397,
              14.095387
            ],
            [
              121.050504,
              14.094236
            ],
            [
              121.049071,
              14.091245
            ],
            [
              121.054704,
              14.085553
            ],
            [
              121.06218,
              14.082302
            ]
          ]
        ]
      }
    },
    {
      "type": "Feature",
      "properties": {
        "Current Location": "Banadero, Tanauan"
      },
      "geometry": {
        "type": "Polygon",
        "coordinates": [
          [
            [
              121.073423,
              14.086613
            ],
            [
              121.077153,
              14.083126
            ],
            [
              121.067231,
              14.076165
            ],
            [
              121.062143,
              14.082263
            ],
            [
              121.066764,
              14.090501
            ],
            [
              121.068852,
              14.092904
            ],
            [
              121.074633,
              14.088602
            ],
            [
              121.073422,
              14.086614
            ],
            [
              121.073423,
              14.086613
            ]
          ]
        ]
      }
    },
    {
      "type": "Feature",
      "properties": {
        "Current Location": "Talaga, Tanauan"
      },
      "geometry": {
        "type": "Polygon",
        "coordinates": [
          [
            [
              121.077178,
              14.083135
            ],
            [
              121.073428,
              14.086598
            ],
            [
              121.074644,
              14.088607
            ],
            [
              121.068884,
              14.092919
            ],
            [
              121.072022,
              14.096028
            ],
            [
              121.077987,
              14.097627
            ],
            [
              121.095498,
              14.10449
            ],
            [
              121.0965,
              14.104754
            ],
            [
              121.097359,
              14.105261
            ],
            [
              121.104617,
              14.103956
            ],
            [
              121.104939,
              14.102214
            ],
            [
              121.106492,
              14.100819
            ],
            [
              121.106958,
              14.099837
            ],
            [
              121.107165,
              14.098199
            ],
            [
              121.108857,
              14.096803
            ],
            [
              121.109615,
              14.095415
            ],
            [
              121.09881,
              14.095544
            ],
            [
              121.077178,
              14.083135
            ]
          ]
        ]
      }
    },
    {
      "type": "Feature",
      "properties": {
        "Current Location": "Sambat, Tanauan"
      },
      "geometry": {
        "type": "Polygon",
        "coordinates": [
          [
            [
              121.124834,
              14.089653
            ],
            [
              121.123857,
              14.086616
            ],
            [
              121.123678,
              14.084324
            ],
            [
              121.124981,
              14.083876
            ],
            [
              121.125224,
              14.082164
            ],
            [
              121.12488,
              14.08122
            ],
            [
              121.1248,
              14.080556
            ],
            [
              121.124452,
              14.080043
            ],
            [
              121.123758,
              14.079743
            ],
            [
              121.123591,
              14.07907
            ],
            [
              121.129167,
              14.076578
            ],
            [
              121.132541,
              14.077594
            ],
            [
              121.135785,
              14.078001
            ],
            [
              121.136532,
              14.080355
            ],
            [
              121.142031,
              14.081455
            ],
            [
              121.143409,
              14.081064
            ],
            [
              121.142151,
              14.082978
            ],
            [
              121.141879,
              14.084029
            ],
            [
              121.136744,
              14.086351
            ],
            [
              121.132824,
              14.087465
            ],
            [
              121.131247,
              14.087883
            ],
            [
              121.127821,
              14.089559
            ],
            [
              121.124834,
              14.089652
            ],
            [
              121.124834,
              14.089653
            ]
          ]
        ]
      }
    },
    {
      "type": "Feature",
      "properties": {
        "Current Location": "Tanauan"
      },
      "geometry": {
        "coordinates": [
          [
            [
              121.15802197699463,
              14.092668709626167
            ],
            [
              121.14865073172751,
              14.090045502845605
            ],
            [
              121.14399445267429,
              14.096640241303973
            ],
            [
              121.1396892,
              14.0850378
            ],
            [
              121.1418752,
              14.0840309
            ],
            [
              121.1421512,
              14.0829775
            ],
            [
              121.1434062,
              14.0810648
            ],
            [
              121.1420253,
              14.0814598
            ],
            [
              121.1413251,
              14.0813143
            ],
            [
              121.1391912493055,
              14.07415603314854
            ],
            [
              121.1551224350045,
              14.076238381934687
            ],
            [
              121.15802197699463,
              14.092668709626167
            ]
          ]
        ],
        "type": "Polygon"
      }
    },
    {
      "type": "Feature",
      "properties": {
        "Current Location": "Sto. Tomas"
      },
      "geometry": {
        "coordinates": [
          [
            [
              121.15809059057267,
              14.092709518462868
            ],
            [
              121.16507730449564,
              14.106605699195072
            ],
            [
              121.15228373264965,
              14.118393793975123
            ],
            [
              121.14116582974142,
              14.115556749736996
            ],
            [
              121.137063384427,
              14.10940845231184
            ],
            [
              121.1437244598003,
              14.097008827149665
            ],
            [
              121.14866030339678,
              14.09004738113105
            ],
            [
              121.15809059057267,
              14.092709518462868
            ]
          ]
        ],
        "type": "Polygon"
      }
    },
    {
      "type": "Feature",
      "properties": {
        "Current Location": "Bugaan West, Laurel"
      },
      "geometry": {
        "coordinates": [
          [
            [
              120.9388871320769,
              14.046995552471188
            ],
            [
              120.93147386576334,
              14.045809013791512
            ],
            [
              120.93161776107826,
              14.039087848298166
            ],
            [
              120.93967855631126,
              14.039157646923911
            ],
            [
              120.9388871320769,
              14.046995552471188
            ]
          ]
        ],
        "type": "Polygon"
      }
    },
    {
      "type": "Feature",
      "properties": {
        "Current Location": "Laurel"
      },
      "geometry": {
        "coordinates": [
          [
            [
              120.93884651913379,
              14.047008342759511
            ],
            [
              120.93850292552713,
              14.060315662751805
            ],
            [
              120.9254872467481,
              14.059275512434425
            ],
            [
              120.92829388178421,
              14.04516679773809
            ],
            [
              120.93884651913379,
              14.047008342759511
            ]
          ]
        ],
        "type": "Polygon"
      }
    },
    {
      "type": "Feature",
      "properties": {
        "Current Location": "Balakilong, Laurel"
      },
      "geometry": {
        "coordinates": [
          [
            [
              120.93163759434054,
              14.07599198701321
            ],
            [
              120.92607506235402,
              14.059274150833758
            ],
            [
              120.93849856214115,
              14.060298516710503
            ],
            [
              120.93867273535483,
              14.066240541913075
            ],
            [
              120.93163759434054,
              14.07599198701321
            ]
          ]
        ],
        "type": "Polygon"
      }
    },
    {
      "type": "Feature",
      "properties": {
        "Current Location": "Berinayan, Laurel"
      },
      "geometry": {
        "coordinates": [
          [
            [
              120.9571534,
              14.0925612
            ],
            [
              120.95225566059833,
              14.087772913051978
            ],
            [
              120.94773692663057,
              14.07823566588874
            ],
            [
              120.94779084997299,
              14.06763804922447
            ],
            [
              120.95937351115941,
              14.067950147983893
            ],
            [
              120.961546,
              14.0739694
            ],
            [
              120.9623253,
              14.0746455
            ],
            [
              120.9625331,
              14.07484
            ],
            [
              120.9626484,
              14.0749311
            ],
            [
              120.9628615,
              14.0750849
            ],
            [
              120.9628885,
              14.0751442
            ],
            [
              120.9628814,
              14.0751912
            ],
            [
              120.9628529,
              14.0752216
            ],
            [
              120.9622595,
              14.0752906
            ],
            [
              120.962184,
              14.0753207
            ],
            [
              120.961982,
              14.075512
            ],
            [
              120.9613482,
              14.0753355
            ],
            [
              120.9611426,
              14.0753259
            ],
            [
              120.9608802,
              14.0753295
            ],
            [
              120.9606569,
              14.0754604
            ],
            [
              120.9602354,
              14.0760739
            ],
            [
              120.9571534,
              14.0925612
            ]
          ]
        ],
        "type": "Polygon"
      }
    },
    {
      "type": "Feature",
      "properties": {
        "Current Location": "Leynes, Talisay"
      },
      "geometry": {
        "coordinates": [
          [
            [
              120.97298,
              14.0997459
            ],
            [
              120.9726296,
              14.099622
            ],
            [
              120.9720957,
              14.0995485
            ],
            [
              120.9715855,
              14.0991984
            ],
            [
              120.9716042,
              14.0988406
            ],
            [
              120.9711269,
              14.0984947
            ],
            [
              120.9708559,
              14.0984136
            ],
            [
              120.9704047,
              14.098327
            ],
            [
              120.9705266,
              14.0978006
            ],
            [
              120.970777,
              14.0965704
            ],
            [
              120.9707998,
              14.0957944
            ],
            [
              120.9706517,
              14.0950561
            ],
            [
              120.9705884,
              14.0949017
            ],
            [
              120.9702794,
              14.0943213
            ],
            [
              120.9701916,
              14.0930154
            ],
            [
              120.9703208,
              14.0924119
            ],
            [
              120.9704063,
              14.0918167
            ],
            [
              120.9703414,
              14.091427
            ],
            [
              120.9703976,
              14.0910659
            ],
            [
              120.97059,
              14.090961
            ],
            [
              120.9710567,
              14.0908357
            ],
            [
              120.9712078,
              14.090597
            ],
            [
              120.9714031,
              14.0900953
            ],
            [
              120.9716231,
              14.0898367
            ],
            [
              120.9718101,
              14.0892379
            ],
            [
              120.9721631,
              14.0884782
            ],
            [
              120.9723385,
              14.0882702
            ],
            [
              120.9724424,
              14.0882444
            ],
            [
              120.9726805,
              14.0881815
            ],
            [
              120.9727123,
              14.0881249
            ],
            [
              120.9728182,
              14.088031
            ],
            [
              120.9728675,
              14.0879873
            ],
            [
              120.9729484,
              14.087899
            ],
            [
              120.9729236,
              14.0877692
            ],
            [
              120.9731175,
              14.0876342
            ],
            [
              120.9732219,
              14.0874745
            ],
            [
              120.973341,
              14.0874206
            ],
            [
              120.9735462,
              14.0872944
            ],
            [
              120.9736943,
              14.0872117
            ],
            [
              120.9734228,
              14.0865364
            ],
            [
              120.9735865,
              14.0865225
            ],
            [
              120.9736481,
              14.0865149
            ],
            [
              120.9737528,
              14.0865245
            ],
            [
              120.9739167,
              14.086552
            ],
            [
              120.9740916,
              14.0866152
            ],
            [
              120.9741442,
              14.0866722
            ],
            [
              120.9741819,
              14.0867796
            ],
            [
              120.9742091,
              14.0869428
            ],
            [
              120.9742138,
              14.0873257
            ],
            [
              120.9742248,
              14.0874326
            ],
            [
              120.9742692,
              14.0875151
            ],
            [
              120.9743515,
              14.0875975
            ],
            [
              120.9745885,
              14.0877747
            ],
            [
              120.9747004,
              14.0878379
            ],
            [
              120.9749525,
              14.087934
            ],
            [
              120.9751659,
              14.087993
            ],
            [
              120.975517,
              14.0880221
            ],
            [
              120.9758176,
              14.0880161
            ],
            [
              120.9760262,
              14.0880057
            ],
            [
              120.976266,
              14.0879919
            ],
            [
              120.9764386,
              14.0879467
            ],
            [
              120.9767472,
              14.0877364
            ],
            [
              120.9770063,
              14.0875809
            ],
            [
              120.9773911,
              14.0874864
            ],
            [
              120.9778126,
              14.0874308
            ],
            [
              120.9780881,
              14.0873433
            ],
            [
              120.9787483,
              14.0870836
            ],
            [
              120.9790544,
              14.0869652
            ],
            [
              120.9792046,
              14.0868974
            ],
            [
              120.9794141,
              14.0868199
            ],
            [
              120.9794518,
              14.0867263
            ],
            [
              120.9794498,
              14.0866594
            ],
            [
              120.9794618,
              14.0865773
            ],
            [
              120.9795969,
              14.0865072
            ],
            [
              120.9797139,
              14.0864369
            ],
            [
              120.9797691,
              14.0863836
            ],
            [
              120.9798105,
              14.0863146
            ],
            [
              120.9798245,
              14.0862202
            ],
            [
              120.9798852,
              14.0861063
            ],
            [
              120.9800314,
              14.0860026
            ],
            [
              120.9801123,
              14.0859861
            ],
            [
              120.9803337,
              14.0860451
            ],
            [
              120.9804502,
              14.0860876
            ],
            [
              120.9804462,
              14.0860948
            ],
            [
              120.9802235,
              14.0864922
            ],
            [
              120.9802903,
              14.0868367
            ],
            [
              120.980414,
              14.0869695
            ],
            [
              120.9805725,
              14.0872492
            ],
            [
              120.9809801,
              14.0875053
            ],
            [
              120.9810212,
              14.0877874
            ],
            [
              120.9809735,
              14.0883324
            ],
            [
              120.9811031,
              14.0888825
            ],
            [
              120.9809122,
              14.0896485
            ],
            [
              120.980634,
              14.0906807
            ],
            [
              120.9805385,
              14.0915244
            ],
            [
              120.9797643,
              14.0925969
            ],
            [
              120.9794251,
              14.0928928
            ],
            [
              120.9793163,
              14.0929877
            ],
            [
              120.978653,
              14.0937171
            ],
            [
              120.9783251,
              14.094289
            ],
            [
              120.9779861,
              14.0947541
            ],
            [
              120.9774984,
              14.0950788
            ],
            [
              120.9767985,
              14.0956635
            ],
            [
              120.9759131,
              14.0958038
            ],
            [
              120.9751781,
              14.0965061
            ],
            [
              120.974931,
              14.0974483
            ],
            [
              120.9742173,
              14.0986617
            ],
            [
              120.97298,
              14.0997459
            ]
          ]
        ],
        "type": "Polygon"
      }
    },
    {
      "type": "Feature",
      "properties": {
        "Current Location": "Santa Maria, Talisay"
      },
      "geometry": {
        "coordinates": [
          [
            [
              120.99856816842242,
              14.090292523214657
            ],
            [
              121.00270155929775,
              14.080166562001494
            ],
            [
              121.01356856268927,
              14.084796138468263
            ],
            [
              121.00404856632252,
              14.09273904515014
            ],
            [
              120.99856816842242,
              14.090292523214657
            ]
          ]
        ],
        "type": "Polygon"
      }
    },
    {
      "type": "Feature",
      "properties": {
        "Current Location": "Banga, Talisay"
      },
      "geometry": {
        "coordinates": [
          [
            [
              121.0041276452427,
              14.092675390126516
            ],
            [
              121.01413102209398,
              14.084321917636856
            ],
            [
              121.0192485462722,
              14.084912742635396
            ],
            [
              121.01910767736888,
              14.096457069341469
            ],
            [
              121.0041276452427,
              14.092675390126516
            ]
          ]
        ],
        "type": "Polygon"
      }
    },
    {
      "type": "Feature",
      "properties": {
        "Current Location": "Talisay"
      },
      "geometry": {
        "coordinates": [
          [
            [
              121.01910323300149,
              14.097242821706203
            ],
            [
              121.01924831842246,
              14.084931354388232
            ],
            [
              121.02555933976402,
              14.08581085300564
            ],
            [
              121.02548678530701,
              14.09685592896102
            ],
            [
              121.01910323300149,
              14.097242821706203
            ]
          ]
        ],
        "type": "Polygon"
      }
    },
    {
      "type": "Feature",
      "properties": {
        "Current Location": "Tumaway, Talisay"
      },
      "geometry": {
        "coordinates": [
          [
            [
              121.02547106345247,
              14.098595340332707
            ],
            [
              121.02556321325983,
              14.085236081899268
            ],
            [
              121.03491990226547,
              14.086341238357221
            ],
            [
              121.03383870834188,
              14.099117893409598
            ],
            [
              121.02547106345247,
              14.098595340332707
            ]
          ]
        ],
        "type": "Polygon"
      }
    },
    {
      "type": "Feature",
      "properties": {
        "Current Location": "Quiling, Talisay"
      },
      "geometry": {
        "coordinates": [
          [
            [
              121.03982818810829,
              14.097664530296399
            ],
            [
              121.03383919298079,
              14.099105512764865
            ],
            [
              121.03491514942965,
              14.086398109601319
            ],
            [
              121.04067302912478,
              14.086934377697787
            ],
            [
              121.03982818810829,
              14.097664530296399
            ]
          ]
        ],
        "type": "Polygon"
      }
    },
    {
      "type": "Feature",
      "properties": {
        "Current Location": "Aya, Talisay"
      },
      "geometry": {
        "type": "Polygon",
        "coordinates": [
          [
            [
              121.049061,
              14.091228
            ],
            [
              121.050521,
              14.094243
            ],
            [
              121.051405,
              14.095388
            ],
            [
              121.051421,
              14.096616
            ],
            [
              121.051734,
              14.097078
            ],
            [
              121.037559,
              14.101652
            ],
            [
              121.038391,
              14.099294
            ],
            [
              121.038434,
              14.098166
            ],
            [
              121.039128,
              14.095459
            ],
            [
              121.039084,
              14.095213
            ],
            [
              121.038838,
              14.09477
            ],
            [
              121.038816,
              14.09459
            ],
            [
              121.038832,
              14.094417
            ],
            [
              121.038949,
              14.093944
            ],
            [
              121.038895,
              14.093591
            ],
            [
              121.03882,
              14.09351
            ],
            [
              121.038641,
              14.093493
            ],
            [
              121.049061,
              14.091228
            ]
          ]
        ]
      }
    },
    {
      "type": "Feature",
      "properties": {
        "Current Location": "Santor, Tanauan"
      },
      "geometry": {
        "type": "Polygon",
        "coordinates": [
          [
            [
              121.098879,
              14.095544
            ],
            [
              121.1096148,
              14.095415
            ],
            [
              121.1093039,
              14.0959836
            ],
            [
              121.110485,
              14.0963294
            ],
            [
              121.115412,
              14.096247
            ],
            [
              121.120368,
              14.095331
            ],
            [
              121.124836,
              14.089643
            ],
            [
              121.123857,
              14.08662
            ],
            [
              121.123681,
              14.084316
            ],
            [
              121.1097,
              14.080336
            ],
            [
              121.098879,
              14.095544
            ]
          ]
        ]
      }
    },
    {
      "type": "Feature",
      "properties": {
        "Current Location": "Bugaan East, Laurel"
      },
      "geometry": {
        "coordinates": [
          [
            [
              120.93875245324989,
              14.048472523082367
            ],
            [
              120.93966702689801,
              14.03924759738723
            ],
            [
              120.94959438932841,
              14.042352969330167
            ],
            [
              120.94634765287412,
              14.053219097243087
            ],
            [
              120.93875245324989,
              14.048472523082367
            ]
          ]
        ],
        "type": "Polygon"
      }
    },
    {
      "type": "Feature",
      "properties": {
        "Current Location": "Looc, Calamba"
      },
      "geometry": {
        "coordinates": [
          [
            [
              121.16908,
              14.222766
            ],
            [
              121.169331,
              14.221965
            ],
            [
              121.169858,
              14.222097
            ],
            [
              121.170748,
              14.221997
            ],
            [
              121.171314,
              14.221759
            ],
            [
              121.172145,
              14.218529
            ],
            [
              121.172191,
              14.217581
            ],
            [
              121.173531,
              14.217472
            ],
            [
              121.174257,
              14.21749
            ],
            [
              121.175432,
              14.218053
            ],
            [
              121.177687,
              14.219358
            ],
            [
              121.181379,
              14.223662
            ],
            [
              121.186793,
              14.226094
            ],
            [
              121.18711,
              14.229649
            ],
            [
              121.182766,
              14.238569
            ],
            [
              121.169419,
              14.229621
            ],
            [
              121.16908,
              14.222766
            ]
          ]
        ],
        "type": "Polygon"
      }
    },
    {
      "type": "Feature",
      "properties": {
        "Current Location": "San Isidro"
      },
      "geometry": {
        "coordinates": [
          [
            [
              121.169066,
              14.079797
            ],
            [
              121.166314,
              14.07721
            ],
            [
              121.174122,
              14.071088
            ],
            [
              121.179764,
              14.075834
            ],
            [
              121.169066,
              14.079797
            ]
          ]
        ],
        "type": "Polygon"
      }
    }
  ]
}